NORAD_CAT_ID,OBJECT_NAME,OBJECT_TYPE,EPOCH,MEAN_MOTION,ECCENTRICITY,INCLINATION,RA_OF_ASC_NODE,ARG_OF_PERICENTER,MEAN_ANOMALY,BSTAR,MEAN_MOTION_DOT,MEAN_MOTION_DDOT,TLE_LINE0,TLE_LINE1,TLE_LINE2,SEMIMAJOR_AXIS,PERIOD,APOGEE,PERIGEE,DECAYED
53625.0,STARLINK-4603,PAYLOAD,2023-06-11 02:50:19,15.08848006,0.0001329,53.2157,54.6352,88.3132,271.8012,-7.4679e-06,-4.07e-06,0.0,0 STARLINK-4603,1 53625U 22104AP  23162.11827571 -.00000407  00000-0 -74679-5 0  9997,2 53625  53.2157  54.6352 0001329  88.3132 271.8012 15.08848006 43717,6917.856,95.437,540.64,538.802,0.0
53625.0,STARLINK-4603,PAYLOAD,2023-06-11 23:30:20,15.08837491,0.0001199,53.217,50.7662,91.0163,269.0966,4.5536e-05,4.37e-06,0.0,0 STARLINK-4603,1 53625U 22104AP  23162.97940067  .00000437  00000-0  45536-4 0  9997,2 53625  53.2170  50.7662 0001199  91.0163 269.0966 15.08837491 43840,6917.888,95.438,540.583,538.924,0.0
53625.0,STARLINK-4603,PAYLOAD,2023-06-12 09:02:38,15.08847667,0.0001059,53.2171,48.9848,87.957,272.1544,2.7748e-05,1.54e-06,0.0,0 STARLINK-4603,1 53625U 22104AP  23163.37683363  .00000154  00000-0  27748-4 0  9996,2 53625  53.2171  48.9848 0001059  87.9570 272.1544 15.08847667 43907,6917.857,95.437,540.455,538.989,0.0
53625.0,STARLINK-4603,PAYLOAD,2023-06-12 18:34:58,15.08830062,0.0001141,53.2172,47.2013,91.8785,268.2338,-5.9713e-05,-1.238e-05,0.0,0 STARLINK-4603,1 53625U 22104AP  23163.77429027 -.00001238  00000-0 -59713-4 0  9998,2 53625  53.2172  47.2013 0001141  91.8785 268.2338 15.08830062 43962,6917.911,95.438,540.565,538.986,0.0
53625.0,STARLINK-4603,PAYLOAD,2023-06-13 00:56:30,15.08835831,0.0001162,53.2164,46.009,74.6508,285.4612,-2.197e-05,-6.37e-06,0.0,0 STARLINK-4603,1 53625U 22104AP  23164.03924523 -.00000637  00000-0 -21970-4 0  9995,2 53625  53.2164  46.0090 0001162  74.6508 285.4612 15.08835831 44001,6917.893,95.438,540.562,538.954,0.0
53625.0,STARLINK-4603,PAYLOAD,2023-06-13 18:25:45,15.08839976,0.0001086,53.2166,42.7412,101.8855,258.2259,-3.217e-05,-8e-06,0.0,0 STARLINK-4603,1 53625U 22104AP  23164.76788552 -.00000800  00000-0 -32170-4 0  9991,2 53625  53.2166  42.7412 0001086 101.8855 258.2259 15.08839976 44792,6917.88,95.438,540.497,538.994,0.0
53625.0,STARLINK-4603,PAYLOAD,2023-06-14 02:22:40,15.088511,0.0001069,53.2166,41.2536,99.1958,260.9155,7.6761e-05,9.34e-06,0.0,0 STARLINK-4603,1 53625U 22104AP  23165.09907433  .00000934  00000-0  76761-4 0  9999,2 53625  53.2166  41.2536 0001069  99.1958 260.9155 15.08851100 44166,6917.846,95.437,540.451,538.972,0.0
53625.0,STARLINK-4603,PAYLOAD,2023-06-14 16:41:09,15.08829551,0.000122,53.2172,38.5761,87.9833,272.1299,7.5503e-05,9.14e-06,0.0,0 STARLINK-4603,1 53625U 22104AP  23165.69524963  .00000914  00000-0  75503-4 0  9999,2 53625  53.2172  38.5761 0001220  87.9833 272.1299 15.08829551 44257,6917.912,95.438,540.621,538.933,0.0
53625.0,STARLINK-4603,PAYLOAD,2023-06-15 00:38:05,15.08836455,0.0001293,53.2174,37.089,85.3001,274.8139,1.8773e-05,1.1e-07,0.0,0 STARLINK-4603,1 53625U 22104AP  23166.02644872  .00000011  00000-0  18773-4 0  9993,2 53625  53.2174  37.0890 0001293  85.3001 274.8139 15.08836455 44988,6917.891,95.438,540.651,538.862,0.0
53625.0,STARLINK-4603,PAYLOAD,2023-06-15 16:31:56,15.08838292,0.0001342,53.2153,34.1132,111.5277,248.5858,4.5025e-05,4.29e-06,0.0,0 STARLINK-4603,1 53625U 22104AP  23166.68884724  .00000429  00000-0  45025-4 0  9990,2 53625  53.2153  34.1132 0001342 111.5277 248.5858 15.08838292 44408,6917.886,95.438,540.679,538.822,0.0
53625.0,STARLINK-4603,PAYLOAD,2023-06-16 00:28:51,15.0884888,0.0001082,53.2172,32.6279,99.5028,260.6086,6.4814e-05,7.44e-06,0.0,0 STARLINK-4603,1 53625U 22104AP  23167.02004016  .00000744  00000-0  64814-4 0  9994,2 53625  53.2172  32.6279 0001082  99.5028 260.6086 15.08848880 44451,6917.853,95.437,540.467,538.97,0.0
53625.0,STARLINK-4603,PAYLOAD,2023-06-16 08:25:47,15.08843205,0.0001127,53.2174,31.1414,87.3075,272.8046,-1.6086e-05,-5.44e-06,0.0,0 STARLINK-4603,1 53625U 22104AP  23167.35124565 -.00000544  00000-0 -16086-4 0  9990,2 53625  53.2174  31.1414 0001127  87.3075 272.8046 15.08843205 44508,6917.871,95.437,540.515,538.956,0.0
53625.0,STARLINK-4603,PAYLOAD,2023-06-16 21:08:52,15.08843598,0.0001111,53.2166,28.7622,86.1707,273.9412,0.00010126,1.324e-05,0.0,0 STARLINK-4603,1 53625U 22104AP  23167.88116298  .00001324  00000-0  10126-3 0  9995,2 53625  53.2166  28.7622 0001111  86.1707 273.9412 15.08843598 45262,6917.869,95.437,540.503,538.966,0.0
53625.0,STARLINK-4603,PAYLOAD,2023-06-17 08:16:34,15.08843206,7.03e-05,53.2167,26.6807,100.8696,259.2376,0.00015089,2.115e-05,0.0,0 STARLINK-4603,1 53625U 22104AP  23168.34483990  .00002115  00000-0  15089-3 0  9995,2 53625  53.2167  26.6807 0000703 100.8696 259.2376 15.08843206 45332,6917.871,95.437,540.222,539.249,0.0
53625.0,STARLINK-4603,PAYLOAD,2023-06-17 14:38:07,15.08837326,0.0001042,53.2159,25.4921,72.7822,287.3284,-1.1396e-05,-4.69e-06,0.0,0 STARLINK-4603,1 53625U 22104AP  23168.60981316 -.00000469  00000-0 -11396-4 0  9999,2 53625  53.2159  25.4921 0001042  72.7822 287.3284 15.08837326 44696,6917.889,95.438,540.474,539.033,0.0
53625.0,STARLINK-4603,PAYLOAD,2023-06-17 20:59:40,15.08835007,9.74e-05,53.2167,24.3021,90.825,269.2853,-2.522e-05,-6.89e-06,0.0,0 STARLINK-4603,1 53625U 22104AP  23168.87477487 -.00000689  00000-0 -25220-4 0  9992,2 53625  53.2167  24.3021 0000974  90.8250 269.2853 15.08835007 45419,6917.896,95.438,540.434,539.087,0.0
53625.0,STARLINK-4603,PAYLOAD,2023-06-18 00:10:26,15.08835887,9.96e-05,53.217,23.7066,93.3551,266.7555,-1.5622e-05,-5.36e-06,0.0,0 STARLINK-4603,1 53625U 22104AP  23169.00725444 -.00000536  00000-0 -15622-4 0  9993,2 53625  53.2170  23.7066 0000996  93.3551 266.7555 15.08835887 45430,6917.893,95.438,540.447,539.069,0.0
53625.0,STARLINK-4603,PAYLOAD,2023-06-18 20:50:26,15.08845989,8.84e-05,53.2168,19.8419,81.8988,278.2105,0.00011793,1.59e-05,0.0,0 STARLINK-4603,1 53625U 22104AP  23169.86836487  .00001590  00000-0  11793-3 0  9990,2 53625  53.2168  19.8419 0000884  81.8988 278.2105 15.08845989 45564,6917.862,95.437,540.339,539.116,0.0
53625.0,STARLINK-4603,PAYLOAD,2023-06-19 00:01:12,15.08850627,8.44e-05,53.2171,19.2467,78.7926,281.3161,0.00010941,1.454e-05,0.0,0 STARLINK-4603,1 53625U 22104AP  23170.00084203  .00001454  00000-0  10941-3 0  9992,2 53625  53.2171  19.2467 0000844  78.7926 281.3161 15.08850627 44907,6917.848,95.437,540.297,539.129,0.0
53625.0,STARLINK-4603,PAYLOAD,2023-06-19 20:41:14,15.08839495,8.86e-05,53.2173,15.3804,88.2512,271.8581,0.000137,1.893e-05,0.0,0 STARLINK-4603,1 53625U 22104AP  23170.86196903  .00001893  00000-0  13700-3 0  9990,2 53625  53.2173  15.3804 0000886  88.2512 271.8581 15.08839495 45714,6917.882,95.438,540.36,539.134,0.0
53625.0,STARLINK-4603,PAYLOAD,2023-06-19 23:52:00,15.08840134,8.93e-05,53.2174,14.7858,87.6987,272.4108,0.0001369,1.892e-05,0.0,0 STARLINK-4603,1 53625U 22104AP  23170.99444870  .00001892  00000-0  13690-3 0  9990,2 53625  53.2174  14.7858 0000893  87.6987 272.4108 15.08840134 45055,6917.88,95.438,540.363,539.127,0.0
53625.0,STARLINK-4603,PAYLOAD,2023-06-20 12:35:05,15.0884171,0.0001427,53.2172,12.4078,77.4395,282.6757,7.7279e-05,9.42e-06,0.0,0 STARLINK-4603,1 53625U 22104AP  23171.52437032  .00000942  00000-0  77279-4 0  9991,2 53625  53.2172  12.4078 0001427  77.4395 282.6757 15.08841710 45814,6917.875,95.437,540.727,538.753,0.0
53625.0,STARLINK-4603,PAYLOAD,2023-06-20 20:32:01,15.08843646,9.06e-05,53.2178,10.9226,95.6877,264.4218,-3.6192e-05,-8.64e-06,0.0,0 STARLINK-4603,1 53625U 22104AP  23171.85556992 -.00000864  00000-0 -36192-4 0  9998,2 53625  53.2178  10.9226 0000906  95.6877 264.4218 15.08843646 45861,6917.869,95.437,540.361,539.107,0.0
53625.0,STARLINK-4603,PAYLOAD,2023-06-21 12:25:52,15.08835434,8.62e-05,53.2186,7.9496,89.1871,270.922,5.7217e-05,6.23e-06,0.0,0 STARLINK-4603,1 53625U 22104AP  23172.51797403  .00000623  00000-0  57217-4 0  9998,2 53625  53.2186   7.9496 0000862  89.1871 270.9220 15.08835434 45285,6917.894,95.438,540.356,539.163,0.0
53625.0,STARLINK-4603,PAYLOAD,2023-06-21 20:22:48,15.08845879,8.12e-05,53.2173,6.4615,95.7006,264.4079,3.2505e-05,2.3e-06,0.0,0 STARLINK-4603,1 53625U 22104AP  23172.84916889  .00000230  00000-0  32505-4 0  9992,2 53625  53.2173   6.4615 0000812  95.7006 264.4079 15.08845879 46012,6917.862,95.437,540.289,539.166,0.0
53625.0,STARLINK-4603,PAYLOAD,2023-06-21 23:33:34,15.08845895,8.09e-05,53.2173,5.8671,92.8528,267.2557,4.0773e-05,3.61e-06,0.0,0 STARLINK-4603,1 53625U 22104AP  23172.98164871  .00000361  00000-0  40773-4 0  9994,2 53625  53.2173   5.8671 0000809  92.8528 267.2557 15.08845895 45356,6917.862,95.437,540.287,539.168,0.0
53625.0,STARLINK-4603,PAYLOAD,2023-06-22 18:38:13,15.08825511,9.19e-05,53.2163,2.2969,85.3187,274.791,-5.3099e-05,-1.132e-05,0.0,0 STARLINK-4603,1 53625U 22104AP  23173.77654491 -.00001132  00000-0 -53099-4 0  9998,2 53625  53.2163   2.2969 0000919  85.3187 274.7910 15.08825511 45478,6917.925,95.438,540.425,539.154,0.0
53625.0,STARLINK-4603,PAYLOAD,2023-06-23 05:45:55,15.08837379,8.92e-05,53.2169,0.2164,85.4535,274.6559,0.00017543,2.505e-05,0.0,0 STARLINK-4603,1 53625U 22104AP  23174.24022326  .00002505  00000-0  17543-3 0  9993,2 53625  53.2169   0.2164 0000892  85.4535 274.6559 15.08837379 45548,6917.888,95.438,540.37,539.136,0.0
53625.0,STARLINK-4603,PAYLOAD,2023-06-23 18:28:59,15.08859779,8.2e-05,53.2166,357.8373,88.1865,271.9221,0.00064052,9.926e-05,0.0,0 STARLINK-4603,1 53625U 22104AP  23174.77013599  .00009926  00000-0  64052-3 0  9994,2 53625  53.2166 357.8373 0000820  88.1865 271.9221 15.08859779 45628,6917.82,95.436,540.252,539.118,0.0
53625.0,STARLINK-4603,PAYLOAD,2023-06-24 05:36:41,15.08861792,0.0001071,53.2158,355.7546,95.3066,264.8049,0.00044617,6.824e-05,0.0,0 STARLINK-4603,1 53625U 22104AP  23175.23381500  .00006824  00000-0  44617-3 0  9995,2 53625  53.2158 355.7546 0001071  95.3066 264.8049 15.08861792 45694,6917.814,95.436,540.42,538.938,0.0
